{
 "type": "FeatureCollection",
 "features": [
  {
   "type": "Feature",
   "geometry": {
    "type": "Point",
    "coordinates": [
     -6.7645487,
     62.0082686
    ]
   },
   "properties": {
    "cycleway:both": "no",
    "highway": "tertiary",
    "junction": "roundabout",
    "lanes": "1",
    "lit": "yes",
    "maxspeed": "50",
    "sidewalk": "right",
    "sidewalk:right:surface": "asphalt",
    "surface": "asphalt"
   }
  },
  {
   "type": "Feature",
   "geometry": {
    "type": "Point",
    "coordinates": [
     -6.7637852,
     62.0086108
    ]
   },
   "properties": {
    "cycleway:both": "no",
    "highway": "secondary",
    "junction": "roundabout",
    "lanes": "1",
    "lit": "yes",
    "maxspeed": "50",
    "sidewalk": "right",
    "sidewalk:right:surface": "asphalt",
    "surface": "asphalt"
   }
  },
  {
   "type": "Feature",
   "geometry": {
    "type": "Point",
    "coordinates": [
     -6.7661095,
     62.0362174
    ]
   },
   "properties": {
    "highway": "primary",
    "junction": "roundabout",
    "lanes": "1",
    "maxspeed": "80",
    "maxspeed:type": "FO:urban",
    "name": "Hv\u00edtanesvegur",
    "ref": "10",
    "surface": "asphalt"
   }
  },
  {
   "type": "Feature",
   "geometry": {
    "type": "Point",
    "coordinates": [
     -6.7815488,
     62.0215189
    ]
   },
   "properties": {
    "highway": "primary",
    "junction": "roundabout",
    "lanes": "1",
    "maxspeed": "50",
    "surface": "asphalt"
   }
  },
  {
   "type": "Feature",
   "geometry": {
    "type": "Point",
    "coordinates": [
     -6.7766624,
     62.0212496
    ]
   },
   "properties": {
    "cycleway:both": "no",
    "highway": "primary",
    "junction": "roundabout",
    "lanes": "1",
    "maxspeed": "50",
    "surface": "asphalt"
   }
  },
  {
   "type": "Feature",
   "geometry": {
    "type": "Point",
    "coordinates": [
     -6.7849646,
     62.0069676
    ]
   },
   "properties": {
    "cycleway:right": "lane",
    "highway": "secondary",
    "junction": "roundabout",
    "lane_markings": "yes",
    "lanes": "1",
    "maxspeed": "50",
    "surface": "asphalt"
   }
  },
  {
   "type": "Feature",
   "geometry": {
    "type": "Point",
    "coordinates": [
     -6.7807,
     62.0016936
    ]
   },
   "properties": {
    "highway": "secondary",
    "junction": "roundabout",
    "maxspeed": "50",
    "surface": "asphalt"
   }
  },
  {
   "type": "Feature",
   "geometry": {
    "type": "Point",
    "coordinates": [
     -6.9575265,
     62.10456
    ]
   },
   "properties": {
    "highway": "primary",
    "junction": "roundabout",
    "lanes": "1",
    "maxspeed": "80",
    "ref": "11",
    "surface": "asphalt"
   }
  },
  {
   "type": "Feature",
   "geometry": {
    "type": "Point",
    "coordinates": [
     -6.7233482,
     62.1086622
    ]
   },
   "properties": {
    "highway": "primary",
    "junction": "roundabout",
    "lanes": "1",
    "maxspeed": "50",
    "ref": "10",
    "surface": "paved"
   }
  },
  {
   "type": "Feature",
   "geometry": {
    "type": "Point",
    "coordinates": [
     -7.0050321,
     62.2233583
    ]
   },
   "properties": {
    "highway": "primary",
    "junction": "roundabout",
    "lanes": "1",
    "maxspeed": "80",
    "ref": "13",
    "surface": "asphalt"
   }
  },
  {
   "type": "Feature",
   "geometry": {
    "type": "Point",
    "coordinates": [
     -6.7616489,
     62.2045165
    ]
   },
   "properties": {
    "highway": "primary",
    "junction": "roundabout",
    "lanes": "1",
    "maxspeed": "80",
    "ref": "10",
    "surface": "asphalt"
   }
  },
  {
   "type": "Feature",
   "geometry": {
    "type": "Point",
    "coordinates": [
     -6.57358,
     62.2236398
    ]
   },
   "properties": {
    "highway": "primary",
    "junction": "roundabout",
    "lanes": "1",
    "maxspeed": "50",
    "ref": "10",
    "surface": "asphalt"
   }
  },
  {
   "type": "Feature",
   "geometry": {
    "type": "Point",
    "coordinates": [
     -6.5837671,
     62.2256061
    ]
   },
   "properties": {
    "highway": "secondary",
    "junction": "roundabout",
    "ref": "70",
    "surface": "asphalt"
   }
  },
  {
   "type": "Feature",
   "geometry": {
    "type": "Point",
    "coordinates": [
     -6.7209852,
     62.1147446
    ]
   },
   "properties": {
    "highway": "tertiary",
    "junction": "roundabout"
   }
  },
  {
   "type": "Feature",
   "geometry": {
    "type": "Point",
    "coordinates": [
     -6.760458,
     62.1676952
    ]
   },
   "properties": {
    "highway": "primary",
    "junction": "roundabout",
    "lanes": "1",
    "maxspeed": "80",
    "ref": "10",
    "surface": "asphalt"
   }
  },
  {
   "type": "Feature",
   "geometry": {
    "type": "Point",
    "coordinates": [
     -6.7734604,
     61.9927591
    ]
   },
   "properties": {
    "highway": "secondary",
    "junction": "roundabout",
    "surface": "asphalt"
   }
  },
  {
   "type": "Feature",
   "geometry": {
    "type": "Point",
    "coordinates": [
     -6.7729265,
     62.0142609
    ]
   },
   "properties": {
    "cycleway:left": "separate",
    "cycleway:right": "no",
    "highway": "secondary",
    "junction": "roundabout",
    "lanes": "1",
    "maxspeed": "50",
    "surface": "asphalt"
   }
  },
  {
   "type": "Feature",
   "geometry": {
    "type": "Point",
    "coordinates": [
     -6.7830053,
     62.0368954
    ]
   },
   "properties": {
    "highway": "secondary",
    "junction": "roundabout",
    "surface": "asphalt"
   }
  },
  {
   "type": "Feature",
   "geometry": {
    "type": "Point",
    "coordinates": [
     -7.2081724,
     62.0466861
    ]
   },
   "properties": {
    "cycleway:right": "no",
    "highway": "primary",
    "junction": "roundabout",
    "lanes": "1",
    "maxspeed": "50",
    "ref": "11",
    "surface": "asphalt"
   }
  },
  {
   "type": "Feature",
   "geometry": {
    "type": "Point",
    "coordinates": [
     -6.5856182,
     62.2222125
    ]
   },
   "properties": {
    "highway": "residential",
    "junction": "roundabout",
    "name": "Undir Fossum",
    "surface": "asphalt"
   }
  },
  {
   "type": "Feature",
   "geometry": {
    "type": "Point",
    "coordinates": [
     -6.7891906,
     62.0266892
    ]
   },
   "properties": {
    "highway": "secondary",
    "junction": "roundabout",
    "lanes": "1",
    "surface": "asphalt"
   }
  },
  {
   "type": "Feature",
   "geometry": {
    "type": "Point",
    "coordinates": [
     -6.7012143,
     62.2111091
    ]
   },
   "properties": {
    "highway": "primary",
    "junction": "roundabout",
    "lanes": "1",
    "maxspeed": "50",
    "ref": "10",
    "surface": "asphalt"
   }
  },
  {
   "type": "Feature",
   "geometry": {
    "type": "Point",
    "coordinates": [
     -6.7963929,
     62.0005155
    ]
   },
   "properties": {
    "highway": "secondary",
    "junction": "roundabout",
    "lanes": "1",
    "surface": "asphalt"
   }
  },
  {
   "type": "Feature",
   "geometry": {
    "type": "Point",
    "coordinates": [
     -6.7904441,
     61.9965375
    ]
   },
   "properties": {
    "cycleway:left": "no",
    "cycleway:right": "separate",
    "highway": "secondary",
    "junction": "roundabout",
    "lanes": "1",
    "surface": "asphalt"
   }
  },
  {
   "type": "Feature",
   "geometry": {
    "type": "Point",
    "coordinates": [
     -6.7334283,
     62.1112785
    ]
   },
   "properties": {
    "highway": "primary",
    "junction": "roundabout",
    "lanes": "1",
    "maxspeed": "80",
    "ref": "10",
    "surface": "asphalt"
   }
  },
  {
   "type": "Feature",
   "geometry": {
    "type": "Point",
    "coordinates": [
     -6.7776491,
     62.0346692
    ]
   },
   "properties": {
    "highway": "residential",
    "junction": "roundabout",
    "surface": "asphalt"
   }
  },
  {
   "type": "Feature",
   "geometry": {
    "type": "Point",
    "coordinates": [
     -6.7782226,
     62.0356886
    ]
   },
   "properties": {
    "highway": "residential",
    "junction": "roundabout",
    "surface": "asphalt"
   }
  },
  {
   "type": "Feature",
   "geometry": {
    "type": "Point",
    "coordinates": [
     -7.0415625,
     62.1235973
    ]
   },
   "properties": {
    "highway": "primary",
    "junction": "roundabout",
    "lanes": "1",
    "maxspeed": "80",
    "surface": "asphalt"
   }
  },
  {
   "type": "Feature",
   "geometry": {
    "type": "Point",
    "coordinates": [
     -7.2791951,
     62.0690708
    ]
   },
   "properties": {
    "cycleway:right": "no",
    "highway": "tertiary",
    "junction": "roundabout",
    "lane_markings": "no",
    "lanes": "1",
    "maxspeed": "30",
    "name": "Flogv\u00f8llurin",
    "ref": "11",
    "sidewalk": "no",
    "surface": "asphalt"
   }
  },
  {
   "type": "Feature",
   "geometry": {
    "type": "Point",
    "coordinates": [
     -6.709914,
     62.2119667
    ]
   },
   "properties": {
    "highway": "primary",
    "junction": "roundabout",
    "lanes": "1",
    "maxspeed": "50",
    "ref": "10",
    "surface": "asphalt"
   }
  },
  {
   "type": "Feature",
   "geometry": {
    "type": "Point",
    "coordinates": [
     -6.7789829,
     62.0443307
    ]
   },
   "properties": {
    "foot": "no",
    "highway": "primary",
    "junction": "roundabout",
    "lanes": "1",
    "maxspeed": "80",
    "ref": "10",
    "surface": "asphalt"
   }
  },
  {
   "type": "Feature",
   "geometry": {
    "type": "Point",
    "coordinates": [
     -6.7581229,
     62.0989155
    ]
   },
   "properties": {
    "alt_name:de": "Tiefseequalle",
    "alt_name:en": "Jellyfish roundabout",
    "bicycle": "no",
    "foot": "no",
    "highway": "primary",
    "horse": "no",
    "junction": "roundabout",
    "lanes": "1",
    "layer": "-1",
    "maxspeed": "60",
    "motor_vehicle": "yes",
    "name": "Eysturoyartunnilin",
    "name:da": "Eysturoytunnel",
    "name:de": "Eysturoytunnel",
    "name:en": "Eysturoy Tunnel",
    "old_name": "Sk\u00e1lafjar\u00f0artunnilin",
    "ref": "10",
    "start_date": "2020-12-19",
    "surface": "asphalt",
    "toll": "yes",
    "tunnel": "yes",
    "wikidata": "Q27830387",
    "wikipedia": "fo:Eysturoyartunnilin",
    "wikidata_claims": {
     "P625": {
      "latitude": 62.07508,
      "longitude": -6.78457,
      "altitude": null,
      "precision": 1e-05,
      "globe": "http://www.wikidata.org/entity/Q2"
     },
     "P17": {
      "entity-type": "item",
      "numeric-id": 4628,
      "id": "Q4628"
     },
     "P31": {
      "entity-type": "item",
      "numeric-id": 1317590,
      "id": "Q1317590"
     },
     "P2043": {
      "amount": "+11240",
      "unit": "http://www.wikidata.org/entity/Q11573"
     },
     "P2595": {
      "amount": "+5",
      "unit": "http://www.wikidata.org/entity/Q11229"
     },
     "P373": "Eysturoyartunnilin",
     "P706": {
      "entity-type": "item",
      "numeric-id": 200939,
      "id": "Q200939"
     },
     "P793": {
      "entity-type": "item",
      "numeric-id": 27136782,
      "id": "Q27136782"
     },
     "P1619": {
      "time": "+2020-12-19T00:00:00Z",
      "timezone": 0,
      "before": 0,
      "after": 0,
      "precision": 11,
      "calendarmodel": "http://www.wikidata.org/entity/Q1985727"
     },
     "P2789": {
      "entity-type": "item",
      "numeric-id": 200939,
      "id": "Q200939"
     },
     "P18": "Karte Eysturoyartunnilin.svg",
     "P402": "12041875",
     "P2671": "/g/11c2kdnz5p",
     "P177": {
      "entity-type": "item",
      "numeric-id": 2392405,
      "id": "Q2392405"
     },
     "P193": {
      "entity-type": "item",
      "numeric-id": 558699,
      "id": "Q558699"
     },
     "P5817": {
      "entity-type": "item",
      "numeric-id": 55654238,
      "id": "Q55654238"
     },
     "P571": {
      "time": "+2020-00-00T00:00:00Z",
      "timezone": 0,
      "before": 0,
      "after": 0,
      "precision": 9,
      "calendarmodel": "http://www.wikidata.org/entity/Q1985727"
     },
     "P559": {
      "entity-type": "item",
      "numeric-id": 1025132,
      "id": "Q1025132"
     }
    }
   }
  },
  {
   "type": "Feature",
   "geometry": {
    "type": "Point",
    "coordinates": [
     -6.7888234,
     62.0059511
    ]
   },
   "properties": {
    "highway": "secondary",
    "junction": "roundabout"
   }
  },
  {
   "type": "Feature",
   "geometry": {
    "type": "Point",
    "coordinates": [
     -6.753598,
     62.1153802
    ]
   },
   "properties": {
    "highway": "primary",
    "junction": "roundabout",
    "lanes": "1",
    "maxspeed": "80",
    "oneway": "yes",
    "ref": "15"
   }
  },
  {
   "type": "Feature",
   "geometry": {
    "type": "Point",
    "coordinates": [
     -7.151524,
     62.0564184
    ]
   },
   "properties": {
    "highway": "primary",
    "junction": "roundabout",
    "lanes": "1",
    "maxspeed": "50",
    "ref": "11",
    "surface": "asphalt"
   }
  },
  {
   "type": "Feature",
   "geometry": {
    "type": "Point",
    "coordinates": [
     -6.7780309,
     62.0199076
    ]
   },
   "properties": {
    "highway": "service",
    "junction": "roundabout",
    "surface": "asphalt"
   }
  },
  {
   "type": "Feature",
   "geometry": {
    "type": "Point",
    "coordinates": [
     -6.7985393,
     62.047004
    ]
   },
   "properties": {
    "highway": "primary",
    "junction": "roundabout",
    "lanes": "1",
    "surface": "asphalt"
   }
  },
  {
   "type": "Feature",
   "geometry": {
    "type": "Point",
    "coordinates": [
     -6.7995352,
     61.473211
    ]
   },
   "properties": {
    "highway": "primary",
    "junction": "roundabout",
    "lanes": "1",
    "maxspeed": "40",
    "oneway": "yes",
    "ref": "14"
   }
  },
  {
   "type": "Feature",
   "geometry": {
    "type": "Point",
    "coordinates": [
     -6.7972308,
     62.044465
    ]
   },
   "properties": {
    "highway": "unclassified",
    "junction": "roundabout",
    "lanes": "1",
    "name": "Atlag\u00f8ta",
    "surface": "asphalt"
   }
  },
  {
   "type": "Feature",
   "geometry": {
    "type": "Point",
    "coordinates": [
     -6.7925689,
     62.043282
    ]
   },
   "properties": {
    "highway": "unclassified",
    "junction": "roundabout",
    "lanes": "1",
    "name": "Atlag\u00f8ta",
    "surface": "asphalt"
   }
  },
  {
   "type": "Feature",
   "geometry": {
    "type": "Point",
    "coordinates": [
     -6.8055534,
     62.0116864
    ]
   },
   "properties": {
    "highway": "primary",
    "junction": "roundabout",
    "lanes": "2",
    "oneway": "yes",
    "opening_date": "2025-07-06",
    "surface": "asphalt"
   }
  }
 ]
}